satname,norad_id,inclination_deg,eccentricity,mean_motion_rev_per_day,perigee_km,apogee_km,l1,l2
STARLINK-1008,44714,53.1551,0.000138,15.38562908,449.4157746425635,451.3004392920857,1 44714U 19074B   26110.66668981  .01956107  00000+0  45913-1 0  9992,2 44714  53.1551 342.8829 0001380  74.0909 166.6035 15.38562908  5884
STARLINK-1012,44718,53.1598,0.0001518,15.38147534,450.5506481012317,452.62415242915176,1 44718U 19074F   26110.66668981  .01096543  00000+0  26314-1 0  9999,2 44718  53.1598 343.1813 0001518  94.2403 138.9933 15.38147534  5885
STARLINK-1017,44723,53.0496,0.0002723,15.27713756,480.78041975723045,484.51680360135015,1 44723U 19074L   26110.32680448  .00018049  00000+0  66881-3 0  9999,2 44723  53.0496 338.7878 0002723 160.4553 199.6550 15.27713756355328
STARLINK-1019,44724,53.035,0.0006428,15.97866436,276.05923463552244,284.61937177092113,1 44724U 19074M   26110.66668981  .00230320  32622-4  50027-3 0  9998,2 44724  53.0350 283.2757 0006428 299.2695 253.0760 15.97866436  6032
STARLINK-1020,44725,53.1608,0.0001555,15.36183259,456.34521929182665,458.47107383240655,1 44725U 19074N   26110.66668981  .00362650  00000+0  96707-2 0  9995,2 44725  53.1608   8.4415 0001555 100.8590 121.4243 15.36183259  5878
STARLINK-1036,44741,53.0452,0.000486,15.64509689,371.3674008565349,377.931109096372,1 44741U 19074AE  26110.37467014  .00034363  00000+0  35417-3 0  9994,2 44741  53.0452 345.3886 0004860 134.8232 225.3178 15.64509689355238
STARLINK-1039,44744,53.0634,0.0001885,15.25192519,488.9127141296749,491.5020799673621,1 44744U 19074AH  26110.46797185  .00025766  00000+0  10231-2 0  9995,2 44744  53.0634  22.5496 0001885  73.8613 286.2592 15.25192519354729
STARLINK-1042,44747,53.043,6.82e-05,15.52019382,410.36777378496754,411.29378899034964,1 44747U 19074AL  26110.40984491  .00015575  00000+0  26134-3 0  9997,2 44747  53.0430 254.2769 0000682 323.4106  36.6856 15.52019382356546
STARLINK-1043,44748,53.0521,0.0002217,15.56405524,396.5677344545629,399.57230464703116,1 44748U 19074AM  26110.36778106  .00020735  00000+0  29448-3 0  9992,2 44748  53.0521 352.9788 0002217 151.1405 208.9729 15.56405524355137
STARLINK-1046,44751,53.0516,0.0001604,15.48794471,419.1610774934725,421.34200053678796,1 44751U 19074AQ  26110.11076461  .00049340  00000+0  90568-3 0  9998,2 44751  53.0516  13.2693 0001604 336.0624  24.0309 15.48794471354822
STARLINK-1047,44752,53.0724,0.0003132,15.33535976,463.1291514332179,467.4158631485843,1 44752U 19074AR  26110.28409184  .00009629  00000+0  30383-3 0  9994,2 44752  53.0724 311.5468 0003132  43.8816 316.2434 15.33535976355724
STARLINK-1048,44753,53.0486,0.0002832,15.60833175,383.33374845707294,387.16453036643543,1 44753U 19074AS  26110.30101112  .00072081  00000+0  84656-3 0  9992,2 44753  53.0486 326.9763 0002832 187.8706 172.2262 15.60833175355485
STARLINK-1063,44768,53.1596,0.000139,15.3741272,452.8137931194342,454.71306143821766,1 44768U 19074BH  26110.66668981  .01618342  00000+0  39528-1 0  9992,2 44768  53.1596  23.8352 0001390 110.0510  86.8950 15.37412720  5838
STARLINK-1067,44771,53.0481,0.0006061,15.65663919,367.239160887646,375.4208648006161,1 44771U 19074BL  26110.42420454  .00082639  00000+0  80105-3 0  9993,2 44771  53.0481   0.4165 0006061 136.2970 223.8525 15.65663919355037
STARLINK-1068,44772,53.0461,0.0003795,15.69170629,358.71306065051704,363.82827106890454,1 44772U 19074BM  26110.53329368  .00048385  00000+0  41079-3 0  9995,2 44772  53.0461 334.0005 0003795  86.1856 273.9594 15.69170629355400
STARLINK-1114,44927,53.0443,0.0004692,15.57540979,391.598509607953,397.9542115054992,1 44927U 20001P   26110.54465619  .00058698  00000+0  78321-3 0  9998,2 44927  53.0443 127.2792 0004692 330.8110  29.2638 15.57540979346605
STARLINK-1123,44930,53.147,0.0001341,15.35459145,458.6401129807564,460.47398252436324,1 44930U 20001S   26110.66668981  .00319918  00000+0  87821-2 0  9991,2 44930  53.1470 150.0981 0001341  91.7369  77.7136 15.35459145  5727
STARLINK-1094,44941,53.1561,0.0001445,15.35807258,457.5358695194618,459.5116644811251,1 44941U 20001AD  26110.66668981  .01001691  00000+0  26119-1 0  9992,2 44941  53.1561 124.1536 0001445  85.1302  52.1054 15.35807258  5826
STARLINK-1122,44949,53.1573,0.0001654,15.3332608,464.7650163715489,467.02902282523155,1 44949U 20001AM  26110.66668981  .01912650  00000+0  53166-1 0  9998,2 44949  53.1573 124.5666 0001654  86.7019  80.5770 15.33326080  5679
STARLINK-1080,44961,53.0495,0.0001363,15.5417539,403.6262483145074,405.47520898933817,1 44961U 20001AZ  26110.18186331  .00046104  00000+0  69932-3 0  9994,2 44961  53.0495  88.8293 0001363   5.0403 355.0620 15.54175390347112
STARLINK-1090,44968,53.1517,0.0001992,15.35168869,459.0567129916117,461.7811936834214,1 44968U 20001BG  26110.66668981  .01909983  00000+0  50105-1 0  9994,2 44968  53.1517 111.3176 0001992  84.1543 300.7224 15.35168869  5826
STARLINK-1132,45044,53.1552,0.0004621,15.48913535,416.76176832789315,423.0445170277562,1 45044U 20006A   26110.54591736  .00065283  00000+0  11881-2 0  9999,2 45044  53.1552  54.7772 0004621  49.2965 310.8445 15.48913535343403
STARLINK-1131,45047,53.1583,0.0001752,15.35566081,458.0416867859785,460.43750354492386,1 45047U 20006D   26110.66668981  .01724431  00000+0  44399-1 0  9999,2 45047  53.1583  85.7626 0001752 116.6186  20.2575 15.35566081  5821
STARLINK-1134,45048,53.0302,0.0003758,15.49041959,416.97284554390444,422.08197011282846,1 45048U 20006E   26110.50507897  .00055924  00000+0  10156-2 0  9999,2 45048  53.0302  38.6466 0003758 341.5435  18.5436 15.49041959343618
STARLINK-1156,45054,53.1579,0.0001398,15.30928476,472.0830392741018,473.99862859646964,1 45054U 20006L   26110.22924728  .00023356  00000+0  78047-3 0  9999,2 45054  53.1579  88.0106 0001398 100.7863 259.3296 15.30928476342908
STARLINK-1159,45057,53.0381,0.0002609,16.00358072,271.69095438237673,275.16174013697673,1 45057U 20006P   26110.05222272  .00365794  68144-4  68774-3 0  9997,2 45057  53.0381  24.0912 0002609 171.9163 188.1909 16.00358072343778
STARLINK-1166,45060,53.049,0.0003174,15.51877355,409.09004040186664,413.3999400892744,1 45060U 20006S   26110.58730580  .00061825  00000+0  10141-2 0  9999,2 45060  53.0490  72.0274 0003174  50.7076 309.4214 15.51877355343156
STARLINK-1169,45061,53.1562,0.0003918,15.33501351,462.69423047777855,468.05680688741813,1 45061U 20006T   26110.22694087  .00026846  00000+0  82580-3 0  9993,2 45061  53.1562  87.6377 0003918  78.5088 281.6354 15.33501351342910
STARLINK-1171,45062,53.0439,0.0004756,15.68394605,360.2872184713351,366.69985743903817,1 45062U 20006U   26110.50971177  .00051085  00000+0  44721-3 0  9991,2 45062  53.0439  43.8621 0004756  98.1931 261.9624 15.68394605343546
STARLINK-1133,45064,53.1611,0.0001703,15.31063061,471.4726482277847,473.80602264763456,1 45064U 20006W   26110.59340858  .00034163  00000+0  11297-2 0  9997,2 45064  53.1611  63.1132 0001703 109.7378 250.3807 15.31063061343292
STARLINK-1167,45071,53.1604,0.0003955,15.33197832,463.5717049439363,468.9856377399674,1 45071U 20006AD  26110.60023120  .00036228  00000+0  11197-2 0  9990,2 45071  53.1604  62.9056 0003955  92.2521 267.8934 15.33197832343291
STARLINK-1168,45072,53.1605,0.0001686,15.31038282,471.55819921309467,473.8683059182604,1 45072U 20006AE  26110.57488342  .00015674  00000+0  52645-3 0  9994,2 45072  53.1605  63.4134 0001686  99.2406 260.8786 15.31038282343282
STARLINK-1172,45074,53.1591,0.0003803,15.34038585,461.17567250289085,466.3796327876926,1 45074U 20006AG  26110.58847201  .00036652  00000+0  11030-2 0  9991,2 45074  53.1591  62.6410 0003803  93.7139 266.4299 15.34038585343292
STARLINK-1153,45080,53.1614,0.0004185,15.33135422,463.5999500952712,469.3288814802863,1 45080U 20006AN  26110.58426370  .00043108  00000+0  13315-2 0  9990,2 45080  53.1614  62.8979 0004185 103.7878 256.3590 15.33135422343292
STARLINK-1151,45081,53.0522,0.0004838,15.70900797,353.06316704402525,359.57942889313927,1 45081U 20006AP  26110.50715095  .00061659  00000+0  48511-3 0  9996,2 45081  53.0522  33.6022 0004838 111.8880 248.2652 15.70900797343681
STARLINK-1185,45087,53.1619,0.0002151,15.40787751,442.3157254095713,445.25051544537837,1 45087U 20006AV  26110.52427258  .00042341  00000+0  10225-2 0  9992,2 45087  53.1619  46.0694 0002151 125.8489 234.2717 15.40787751343524
STARLINK-1183,45088,53.1617,0.0001696,15.31041914,471.54051561872984,473.8643203493102,1 45088U 20006AW  26110.55032135  .00031128  00000+0  10315-2 0  9993,2 45088  53.1617  48.0971 0001696 124.7268 235.3893 15.31041914343496
STARLINK-1152,45096,53.038,0.0002827,15.43297313,434.45921453297706,438.3121456563031,1 45096U 20006BE  26110.42671320  .00038094  00000+0  84747-3 0  9993,2 45096  53.0380   8.8184 0002827  56.6823 303.4453 15.43297313344026
STARLINK-1184,45098,53.0537,0.0001295,15.12231939,528.5004470129834,530.2894977938358,1 45098U 20006BG  26110.26262804  .00013224  00000+0  77212-3 0  9997,2 45098  53.0537  57.3608 0001295 271.1213  88.9630 15.12231939343329
STARLINK-1193,45100,53.0489,0.0006109,15.62156582,377.2993708925642,385.5582083743384,1 45100U 20006BJ  26110.05926364  .00089957  00000+0  99966-3 0  9992,2 45100  53.0489  29.1772 0006109 109.7974 250.3699 15.62156582343704
STARLINK-1143,45179,53.0428,0.0004319,15.73276917,346.6332055763587,352.4445720090971,1 45179U 20012B   26110.43653164  .00095344  00000+0  67347-3 0  9997,2 45179  53.0428 124.0287 0004319 333.1600  26.9194 15.73276917342476
STARLINK-1202,45183,53.1553,0.0001748,15.3080651,472.2070883269989,474.60238731854133,1 45183U 20012F   26110.55317515  .00033496  00000+0  11168-2 0  9991,2 45183  53.1553 204.7741 0001748  21.7855 338.3220 15.30806510341365
STARLINK-1216,45185,53.1574,0.0001574,15.31101322,471.4469104428663,473.6034989048967,1 45185U 20012H   26110.54159339  .00034727  00000+0  11467-2 0  9990,2 45185  53.1574 204.7837 0001574  33.4201 326.6899 15.31101322341304
